[{"OBJECT_NAME":"STARLINK-1790","OBJECT_ID":"2020-073X","EPOCH":"2026-03-10T00:00:02.999808","MEAN_MOTION":15.73247405,"ECCENTRICITY":0.00030153,"INCLINATION":53.0418,"RA_OF_ASC_NODE":197.0184,"ARG_OF_PERICENTER":160.3471,"MEAN_ANOMALY":75.7637,"EPHEMERIS_TYPE":0,"CLASSIFICATION_TYPE":"U","NORAD_CAT_ID":46691,"ELEMENT_SET_NO":999,"REV_AT_EPOCH":596,"BSTAR":0.00070221254,"MEAN_MOTION_DOT":0.00099338,"MEAN_MOTION_DDOT":0},{"OBJECT_NAME":"STARLINK-11377 [DTC]","OBJECT_ID":"2024-213F","EPOCH":"2026-03-09T05:23:02.849856","MEAN_MOTION":15.69798435,"ECCENTRICITY":0.00012046,"INCLINATION":53.1574,"RA_OF_ASC_NODE":43.4465,"ARG_OF_PERICENTER":94.3811,"MEAN_ANOMALY":265.7345,"EPHEMERIS_TYPE":0,"CLASSIFICATION_TYPE":"U","NORAD_CAT_ID":62013,"ELEMENT_SET_NO":999,"REV_AT_EPOCH":7484,"BSTAR":0.0016359008,"MEAN_MOTION_DOT":0.00203273,"MEAN_MOTION_DDOT":0}]
